P/2017 U3 (PANSTARRS),e,15.9242,165.0510,296.5414,4.918920,0.0903440,0.10092710,214.6861,10/20.0/2025,2000,g 11.0,4.0
# From MPEC 2023-A50
C/2017 U7 (PANSTARRS),h,09/16.2197/2019,142.6401,276.3228,326.3927,1.002655,6.416089,2000,8.3,2.0
# From MPC114601
P/2017 W3 (Gibbs),e,18.1928,210.0471,327.7787,7.817225,0.0450947,0.50725309,125.8988,10/20.0/2025,2000,g 10.5,4.0
# From MPEC 2024-DC6
C/2017 Y2 (PANSTARRS),h,11/04.8125/2020,128.4465,66.0232,147.7743,1.000883,4.619007,2000,15.0,4.0
# From MPC111770
P/2017 Y3 (Leonard),e,27.6406,154.0506,67.2842,9.791799,0.0321670,0.86976944,90.4731,10/20.0/2025,2000,g 16.5,4.0
# From MPEC 2021-P47
C/2018 A3 (ATLAS),e,139.6245,194.3749,86.5496,347.7911,0.0001520,0.99052363,0.0000,01/08.5286/2019,2000,g  8.5,4.0
# From MPC109147
P/2018 A5 (PANSTARRS),e,23.6237,87.7834,359.5697,5.623881,0.0739009,0.52451822,217.4005,10/20.0/2025,2000,g 15.0,4.0
# From MPEC 2024-JU4
C/2018 A6 (Gibbs),e,77.1774,340.4748,264.2501,14.99341,0.0169767,0.79887225,38.9385,10/20.0/2025,2000,g  9.0,4.0
# From MPC114601
P/2018 C1 (Lemmon-Read),e,5.1000,270.1647,235.8427,5.648970,0.0734092,0.53277548,205.1090,10/20.0/2025,2000,g 13.5,4.0
# From MPEC 2022-M88
C/2018 DO4 (Lemmon),e,160.4429,251.4021,176.4489,25.55446,0.0076296,0.90518662,17.2103,10/20.0/2025,2000,g 11.0,4.0
# From MPEC 2021-R75
C/2018 F1 (Grauer),e,46.1956,177.3343,71.3897,215.3064,0.0003120,0.98611696,0.0000,12/10.1023/2018,2000,g 11.5,4.0
# From MPEC 2023-A50
C/2018 F4 (PANSTARRS),e,78.1580,26.5488,263.1891,1645,0.0000148,0.99790285,0.0000,11/30.6078/2019,2000,g 11.0,6.0
# From MPEC 2021-Y10
C/2018 F4-A,e,78.1582,26.5490,263.1859,1604,0.0000153,0.99784991,0.0000,11/30.5959/2019,2000,g 11.0,6.0
# From MPEC 2023-D41
C/2018 F4-B,e,78.1591,26.5485,263.1716,1673,0.0000144,0.99793865,0.0000,11/30.5327/2019,2000,g 11.0,6.0
# From MPC114602
P/2018 H2 (PANSTARRS),e,7.4136,67.9879,119.0989,4.412992,0.1063174,0.53977543,305.3365,10/20.0/2025,2000,g 16.6,2.0
# From MPEC 2021-R75
C/2018 KJ3 (Lemmon),e,136.6191,91.6960,217.5147,662.7287,0.0000578,0.99454272,0.0000,09/08.3142/2019,2000,g 12.2,2.0
# From MPEC 2021-P47
C/2018 L2 (ATLAS),e,67.2331,242.9967,56.3388,232.8716,0.0002774,0.99260492,0.0000,11/29.0240/2018,2000,g 10.0,4.0
# From MPC114603
P/2018 L4 (PANSTARRS),e,26.6021,145.2133,140.4879,4.949411,0.0895105,0.65843528,236.7557,10/20.0/2025,2000,g 17.5,4.0
# From MPEC 2022-YN2
C/2018 N2 (ASASSN),h,11/12.1034/2019,77.4742,24.5391,25.3354,1.002083,3.136645,2000,6.0,4.0
# From MPC114603
P/2018 P4 (PANSTARRS),e,23.0721,353.1610,8.5162,6.696943,0.0568708,0.44875313,144.4470,10/20.0/2025,2000,g 12.0,4.0
# From MPEC 2021-P47
C/2018 P5 (PANSTARRS),e,7.2467,216.2812,132.0228,12.83979,0.0214223,0.64129437,52.0387,10/20.0/2025,2000,g 11.0,4.0
# From MPC118841
C/2018 R3 (Lemmon),e,69.6814,324.3186,112.8398,1842,0.0000125,0.99930202,0.0000,06/07.8955/2019,2000,g  9.5,4.0
# From MPC114603
C/2018 R5 (Lemmon),e,103.6667,171.2897,178.2689,22.97673,0.0089489,0.84170639,22.1412,10/20.0/2025,2000,g 11.5,4.0
# From MPEC 2022-QC6
C/2018 S2 (TESS),e,64.1110,85.1080,290.9720,14.36922,0.0180948,0.61761172,45.9830,10/20.0/2025,2000,g  7.5,4.0
# From MPC184408
C/2018 U1 (Lemmon),e,108.3261,75.5109,180.3243,29299,0.0000002,0.99982988,0.0000,11/01.9048/2021,2000,g  5.0,4.0
# From MPC114604
C/2018 V1 (Machholz-Fujikawa-Iwamoto),h,12/04.4977/2018,144.2137,129.6752,89.6180,1.000472,0.389897,2000,12.0,4.0
# From MPC115884
C/2018 V2 (ATLAS),e,159.1591,357.2570,319.3222,25.26989,0.0077589,0.90140383,19.5459,10/20.0/2025,2000,g 15.5,4.0
# From MPEC 2025-A40
P/2018 VN2 (Leonard),e,18.2558,226.4350,138.9287,4.060827,0.1204432,0.47807294,323.8950,10/20.0/2025,2000,g 15.0,4.0
# From MPEC 2025-A40
A/2018 V3,e,164.9061,308.8350,3.5594,126.5939,0.0006920,0.98951035,0.0000,09/10.5253/2019,2000,g 15.7,2.0
# From MPEC 2022-M21
C/2018 V4 (Africano),e,69.0398,78.2506,0.1284,218.2489,0.0003057,0.98530851,0.0000,03/02.4488/2019,2000,g 12.5,4.0
# From MPEC 2021-P47
P/2018 V5 (Trujillo-Sheppard),e,10.5750,171.2806,260.9435,8.984482,0.0365986,0.47562689,94.0861,10/20.0/2025,2000,g 12.5,4.0
# From MPEC 2021-P47
C/2018 W1 (Catalina),e,83.3776,233.6140,251.1588,21.74897,0.0097173,0.93791594,22.8426,10/20.0/2025,2000,g 15.5,2.0
# From MPEC 2021-P47
C/2018 W2 (Africano),h,09/05.8741/2019,116.5137,182.0198,158.2513,1.000964,1.464966,2000,9.5,4.0
# From MPEC 2023-M14
A/2018 W3,e,104.8356,251.6833,313.8373,691.9682,0.0000541,0.99381519,0.0000,04/13.1922/2021,2000,g 10.5,2.0
# From MPC119996
C/2018 X2 (Fitzsimmons),e,23.1151,340.6037,162.0366,141.6548,0.0005846,0.98510195,0.0000,07/10.1889/2019,2000,g 12.0,4.0
# From MPC114604
C/2018 X3 (PANSTARRS),e,43.4231,78.7994,359.8901,12.41792,0.0225232,0.78285845,55.9312,10/20.0/2025,2000,g 14.5,4.0
# From MPEC 2024-A43
C/2018 Y1 (Iwamoto),e,160.4944,147.3139,357.8737,126.4465,0.0006932,0.98975375,0.0000,02/03.0438/2019,2000,g 11.5,4.0
# From MPC114605
P/2018 Y2 (Africano),e,11.6967,297.1102,162.4202,7.458627,0.0483856,0.48000363,119.9944,10/20.0/2025,2000,g 11.5,4.0
# From MPC114605
P/2019 A1 (PANSTARRS),e,13.7746,312.2069,150.8033,5.111920,0.0852762,0.57037602,218.4376,10/20.0/2025,2000,g 16.0,4.0
# From MPEC 2021-P47
P/2019 A2 (ATLAS),e,14.8759,139.3599,323.9843,5.710212,0.0722313,0.38334716,182.0952,10/20.0/2025,2000,g 10.5,4.0
# From MPEC 2022-M21
P/2019 A3 (PANSTARRS),e,15.3547,31.2106,325.5960,3.144459,0.1767605,0.26792126,105.4100,10/20.0/2025,2000,g 16.0,4.0
# From MPEC 2022-L66
P/2019 A4 (PANSTARRS),e,13.3064,119.3539,343.2948,2.614269,0.2331732,0.08748645,223.8215,10/20.0/2025,2000,g 15.0,4.0
# From MPEC 2021-P47
C/2019 A5 (PANSTARRS),e,67.5535,146.4987,355.8545,21.51763,0.0098744,0.70656517,22.9746,10/20.0/2025,2000,g  9.5,4.0
# From MPC114605
P/2019 A6 (Lemmon-PANSTARRS),e,33.3005,280.1723,156.2615,5.356789,0.0794964,0.64030982,207.0484,10/20.0/2025,2000,g 16.0,4.0
# From MPC118842
C/2019 A9 (PANSTARRS),e,84.4061,278.4741,237.8710,39.35618,0.0039919,0.96378063,9.0871,10/20.0/2025,2000,g 15.0,4.0
# From MPEC 2022-L66
C/2019 B1 (Africano),e,123.5026,290.2235,174.8473,140.4290,0.0005923,0.98856691,0.0000,03/18.2344/2019,2000,g 16.0,4.0
# From MPC115885
P/2019 B2 (Groeller),e,16.9476,175.6200,0.5254,3.931074,0.1264554,0.35769457,297.7785,10/20.0/2025,2000,g 14.5,4.0
# From MPEC 2024-JU4
C/2019 B3 (PANSTARRS),e,66.6175,358.3990,264.0000,3293,0.0000052,0.99792547,0.0000,01/19.4030/2021,2000,g  5.5,4.0
# From MPEC 2021-P47
C/2019 C1 (ATLAS),e,36.0329,212.3586,319.0256,705.0361,0.0000526,0.99068627,0.0000,05/04.8310/2020,2000,g 10.0,4.0
# From MPEC 2022-O08
C/2019 D1 (Flewelling),e,34.0222,231.6812,70.6984,135.4851,0.0006250,0.98824668,0.0000,05/08.3719/2019,2000,g 13.0,4.0
# From MPC188408
C/2019 E3 (ATLAS),e,84.3208,347.1875,280.7222,5741,0.0000023,0.99820342,0.0000,11/15.7017/2023,2000,g  2.5,4.0
# From MPEC 2024-GJ3
C/2019 F1 (ATLAS-Africano),h,06/20.9170/2021,54.2644,38.6653,251.2867,1.000059,3.607844,2000,5.5,4.0
# From MPC188408
C/2019 F2 (ATLAS),e,19.3442,175.3341,11.6037,16.55416,0.0146333,0.86486436,32.6901,10/20.0/2025,2000,g 12.0,4.0
# From MPEC 2024-E01
C/2019 G2 (PANSTARRS),e,159.2622,208.2569,82.8282,403.2650,0.0001217,0.99427611,0.0000,12/06.2428/2019,2000,g 15.0,4.0
# From MPEC 2022-VC5
A/2019 G3,e,156.8120,49.8801,161.6962,17.10003,0.0139383,0.83417085,35.0238,10/20.0/2025,2000,g 17.1,2.0
# From MPC114607
P/2019 GG21 (PANSTARRS),e,6.0817,340.5660,208.5874,7.468524,0.0482894,0.47167671,113.7370,10/20.0/2025,2000,g 12.0,4.0
# From MPEC 2022-M21
C/2019 H1 (NEOWISE),e,104.3564,269.3124,19.2245,224.7784,0.0002925,0.99181762,0.0000,04/26.5285/2019,2000,g 15.5,4.0
# From MPEC 2023-A50
C/2019 J1 (Lemmon),e,24.5215,98.2387,167.5381,66.23444,0.0018284,0.96255981,4.3686,10/20.0/2025,2000,g 12.0,4.0
# From MPEC 2021-R75
C/2019 J2 (Palomar),e,105.1970,25.4315,98.5250,159.7811,0.0004880,0.98927929,0.0000,07/21.2473/2019,2000,g 13.0,4.0
# From MPC117071
C/2019 J3 (ATLAS),e,131.2927,270.6563,16.4699,9148,0.0000011,0.99974196,0.0000,08/01.6503/2019,2000,g 13.5,4.0
# From MPEC 2022-M21
C/2019 JU6 (ATLAS),e,148.2892,21.6596,94.7213,9212,0.0000011,0.99977967,0.0000,06/02.8915/2019,2000,g 14.5,4.0
# From MPEC 2022-O08
C/2019 K1 (ATLAS),e,87.0243,73.3175,265.7937,2673,0.0000071,0.99924321,0.0000,02/10.4912/2020,2000,g 10.0,4.0
# From MPC119997
C/2019 K4 (Ye),e,105.2836,180.3330,140.0321,1654,0.0000147,0.99862372,0.0000,06/15.3561/2019,2000,g 12.5,4.0
# From MPEC 2021-P47
C/2019 K5 (Young),e,15.2858,177.3018,175.1324,167.4686,0.0004548,0.98771798,0.0000,06/20.8494/2019,2000,g 13.0,4.0
# From MPEC 2021-P47
C/2019 K6 (PANSTARRS),e,132.3953,42.9675,187.4087,878.6700,0.0000378,0.99554217,0.0000,05/18.2199/2020,2000,g 11.5,4.0
# From MPEC 2024-GJ3
C/2019 K7 (Smith),h,06/16.8856/2020,103.4688,308.0443,27.3373,1.000105,4.472916,2000,6.0,4.0
# From MPEC 2021-R75
C/2019 K8 (ATLAS),e,93.0398,290.9837,85.3793,1573,0.0000158,0.99796591,0.0000,07/19.7309/2019,2000,g 11.5,4.0
# From MPEC 2023-A50
C/2019 L1 (PANSTARRS),e,9.9741,254.4276,49.9936,9.814018,0.0320578,0.70391976,72.6634,10/20.0/2025,2000,g 13.5,4.0
# From MPC115886
C/2019 L2 (NEOWISE),e,152.1307,12.5897,18.8371,25.14745,0.0078156,0.93561694,18.6855,10/20.0/2025,2000,g 16.0,4.0
# From MPEC 2024-GJ3
P/2019 LD2 (ATLAS),e,11.6368,178.3697,116.2017,5.159792,0.0840922,0.13291864,176.0383,10/20.0/2025,2000,g  8.5,4.0
# From MPC185656
C/2019 L3 (ATLAS),h,01/10.1890/2022,48.3468,290.7111,171.7770,1.003307,3.560131,2000,4.5,4.0
# From MPEC 2024-YC7
P/2019 LM4 (Palomar),e,36.4142,72.8823,68.2169,5.701775,0.0723917,0.58635000,167.4695,10/20.0/2025,2000,g  9.5,4.0
# From MPC118095
C/2019 LB7 (Kleyna),e,164.2753,4.0306,336.7997,35.06365,0.0047470,0.92887504,11.3834,10/20.0/2025,2000,g 17.0,4.0
# From MPC118095
C/2019 M3 (ATLAS),e,99.6719,155.0718,87.9350,5261,0.0000026,0.99953919,0.0000,12/31.5915/2018,2000,g 12.2,4.0
# From MPEC 2023-JA2
C/2019 M4 (TESS),e,65.6980,52.6390,260.3308,177490,0.0000000,0.99994822,0.0000,09/09.0531/2019,2000,g  5.0,4.0
# From MPEC 2023-C45
